NORAD_CAT_ID,OBJECT_NAME,OBJECT_TYPE,EPOCH,MEAN_MOTION,ECCENTRICITY,INCLINATION,RA_OF_ASC_NODE,ARG_OF_PERICENTER,MEAN_ANOMALY,BSTAR,MEAN_MOTION_DOT,MEAN_MOTION_DDOT,TLE_LINE0,TLE_LINE1,TLE_LINE2,SEMIMAJOR_AXIS,PERIOD,APOGEE,PERIGEE,DECAYED
55410.0,STARLINK-5633,PAYLOAD,2024-08-21 19:34:42,14.98325015,0.0003058,69.9994,68.5391,269.2417,90.8392,3.2805e-05,2.98e-06,0.0,0 STARLINK-5633,1 55410U 23014V   24234.81577369  .00000298  00000-0  32805-4 0  9997,2 55410  69.9994  68.5391 0003058 269.2417  90.8392 14.98325015 86959,6950.208,96.107,574.199,569.948,0.0
